[{"OBJECT_NAME":"LEMUR-2-GREENBERG","OBJECT_ID":"2017-042N","EPOCH":"2026-03-09T11:05:17.256192","MEAN_MOTION":15.27971352,"ECCENTRICITY":0.00091572,"INCLINATION":97.3781,"RA_OF_ASC_NODE":249.8007,"ARG_OF_PERICENTER":4.0119,"MEAN_ANOMALY":356.1192,"EPHEMERIS_TYPE":0,"CLASSIFICATION_TYPE":"U","NORAD_CAT_ID":42837,"ELEMENT_SET_NO":999,"REV_AT_EPOCH":47314,"BSTAR":0.00072539172,"MEAN_MOTION_DOT":0.00019778,"MEAN_MOTION_DDOT":0},{"OBJECT_NAME":"STARLINK-33578","OBJECT_ID":"2025-063F","EPOCH":"2026-03-09T22:35:34.359360","MEAN_MOTION":15.3018665,"ECCENTRICITY":0.00013078,"INCLINATION":53.1613,"RA_OF_ASC_NODE":48.7626,"ARG_OF_PERICENTER":100.5813,"MEAN_ANOMALY":259.5335,"EPHEMERIS_TYPE":0,"CLASSIFICATION_TYPE":"U","NORAD_CAT_ID":63368,"ELEMENT_SET_NO":999,"REV_AT_EPOCH":5477,"BSTAR":0.0009055418,"MEAN_MOTION_DOT":0.00026545,"MEAN_MOTION_DDOT":0}]
